STARLINK-36370
1 67937U 26037F   26092.83335647 -.01823052  00000+0 -58070-1 0  9991
2 67937  43.0007  54.9493 0001317 270.6169 200.6897 15.35212431  5942
STARLINK-36918
1 67956U 26037AA  26092.83335647 -.01867120  00000+0 -59643-1 0  9993
2 67956  43.0007  54.3790 0001457 247.1383  91.7001 15.35206431  5915
